[{"OBJECT_NAME":"STARLINK-35572","OBJECT_ID":"2025-237D","EPOCH":"2026-03-09T21:56:11.819616","MEAN_MOTION":15.30213862,"ECCENTRICITY":0.0001507,"INCLINATION":53.1612,"RA_OF_ASC_NODE":38.6754,"ARG_OF_PERICENTER":101.9073,"MEAN_ANOMALY":258.2097,"EPHEMERIS_TYPE":0,"CLASSIFICATION_TYPE":"U","NORAD_CAT_ID":66117,"ELEMENT_SET_NO":999,"REV_AT_EPOCH":2264,"BSTAR":0.0013011272,"MEAN_MOTION_DOT":0.00038392,"MEAN_MOTION_DDOT":0},{"OBJECT_NAME":"TRANSPORTER-1 OBJECT M","OBJECT_ID":"2021-006M","EPOCH":"2026-03-09T22:05:37.843296","MEAN_MOTION":15.3227845,"ECCENTRICITY":0.00102759,"INCLINATION":97.2377,"RA_OF_ASC_NODE":116.7915,"ARG_OF_PERICENTER":187.5492,"MEAN_ANOMALY":172.5597,"EPHEMERIS_TYPE":0,"CLASSIFICATION_TYPE":"U","NORAD_CAT_ID":47424,"ELEMENT_SET_NO":999,"REV_AT_EPOCH":28439,"BSTAR":0.00023985652,"MEAN_MOTION_DOT":7.411e-5,"MEAN_MOTION_DDOT":0}]
